AEROCUBE 8D             
1 41852U 16067E   25085.06412869  .00017452  00000+0  91050-3 0  9992
2 41852  98.1142 277.5548 0003763 225.4836 134.6088 15.16014815457989
AEROCUBE 8C             
1 41853U 16067F   25084.48163218  .00019161  00000+0  99660-3 0  9993
2 41853  98.0976 274.8695 0006863 161.1187 199.0299 15.16086732457881
PROMETHEUS 2-1          
1 41854U 16067G   25085.07546085  .00069588  00000+0  17134-2 0  9990
2 41854  98.0879 289.9920 0007933 160.7607 199.3938 15.40311776458759
PROMETHEUS 2-3          
1 41855U 16067H   25085.08374740  .00070079  00000+0  17288-2 0  9996
2 41855  98.0828 289.2256 0006970 169.5644 190.5746 15.40258245458758
GSAT0207 (GALILEO 15)   
1 41859U 16069A   25080.48948725  .00000039  00000+0  00000+0 0  9991
2 41859  55.2270 113.6251 0005463 300.2992  59.7149  1.70474564 51685
GSAT0212 (GALILEO 16)   
1 41860U 16069B   25082.68978559  .00000048  00000+0  00000+0 0  9995
2 41860  55.2257 113.5600 0003874 321.8299  38.2152  1.70474740 51976
GSAT0213 (GALILEO 17)   
1 41861U 16069C   25081.29815208  .00000042  00000+0  00000+0 0  9997
2 41861  55.2271 113.6060 0005653 285.6568  74.3496  1.70475012 51815
GSAT0214 (GALILEO 18)   
1 41862U 16069D   25084.96318798  .00000061  00000+0  00000+0 0  9998
2 41862  55.2280 113.4973 0004719 288.7193  71.3100  1.70474724 52007
GOES 16                 
1 41866U 16071A   25084.81086770 -.00000249  00000+0  00000+0 0  9990
2 41866   0.0762 288.2951 0001502  93.7200  17.8966  1.00271622 30603
TIANLIAN 1-04           
1 41869U 16072A   25085.19419669  .00000027  00000+0  00000+0 0  9996
2 41869   0.2949 275.1341 0040143 253.2756 262.1520  1.00269566 30814
WGS F8 (USA 272)        
1 41879U 16075A   25084.92700762 -.00000205  00000+0  00000+0 0  9996
2 41879   0.0065 172.5176 0000099 179.4306 315.1911  1.00270806 30322
FENGYUN 4A              
1 41882U 16077A   25067.80059639 -.00000113  00000+0  00000+0 0  9998
2 41882   1.1339  85.1667 0004787 173.2627 349.1682  1.00660049 30269
ECHOSTAR 19             
1 41893U 16079A   25085.10600375 -.00000141  00000+0  00000+0 0  9995
2 41893   0.0197 152.4290 0001218 217.8789 114.5373  1.00271903 30247
JCSAT-110A (JCSAT-15)   
1 41903U 16082A   25085.02753067 -.00000353  00000+0  00000+0 0  9994
2 41903   0.0016 136.3664 0000631 258.3505 268.9743  1.00271256 30289
STAR ONE D1             
1 41904U 16082B   25085.18992929 -.00000214  00000+0  00000+0 0  9990
2 41904   0.0312 257.0312 0001691  90.8860 180.3205  1.00271522 30297
TJS-2                   
1 41911U 17001A   25084.96447545 -.00000010  00000+0  00000+0 0  9998
2 41911   0.3329 268.9286 0001890 122.9165 205.5426  1.00273275 30228
GOKTURK 1A              
1 41875U 16073A   25085.20078524  .00001694  00000+0  34077-3 0  9993
2 41875  98.1224 341.4759 0001343  86.4692 273.6663 14.62834945443338
RESOURCESAT-2A          
1 41877U 16074A   25085.23045606  .00000586  00000+0  28637-3 0  9998
2 41877  98.6109 158.5318 0000608 166.1818 193.9376 14.21683356430664
CYGFM05                 
1 41884U 16078A   25084.91111801  .00025453  00000+0  66016-3 0  9998
2 41884  34.9616 303.7667 0010421 271.5351  88.4174 15.37996683459311
CYGFM04                 
1 41885U 16078B   25084.89282835  .00026270  00000+0  64808-3 0  9997
2 41885  34.9359 284.4449 0009354 291.6905  68.2817 15.39527195459433
CYGFM02                 
1 41886U 16078C   25084.94101052  .00028510  00000+0  68222-3 0  9998
2 41886  34.9447 285.0056 0011195 283.6897  76.2575 15.40417498459548
CYGFM01                 
1 41887U 16078D   25084.91619503  .00025943  00000+0  66532-3 0  9990
2 41887  34.9451 307.6048 0009709 259.1490 100.8135 15.38345431459361
CYGFM08                 
1 41888U 16078E   25085.00880044  .00027462  00000+0  68537-3 0  9997
2 41888  34.9473 292.4507 0011866 280.6837  79.2545 15.39142051459490
CYGFM07                 
1 41890U 16078G   25084.91378367  .00026844  00000+0  66002-3 0  9997
2 41890  34.9490 283.4772 0009909 297.0799  62.8908 15.39621686459453
CYGFM03                 
1 41891U 16078H   25084.90884935  .00026731  00000+0  66155-3 0  9994
2 41891  34.9442 284.9994 0008637 283.0177  76.9577 15.39435488459434
