OBJECT_NAME,OBJECT_ID,EPOCH,MEAN_MOTION,ECCENTRICITY,INCLINATION,RA_OF_ASC_NODE,ARG_OF_PERICENTER,MEAN_ANOMALY,EPHEMERIS_TYPE,CLASSIFICATION_TYPE,NORAD_CAT_ID,ELEMENT_SET_NO,REV_AT_EPOCH,BSTAR,MEAN_MOTION_DOT,MEAN_MOTION_DDOT
AEROCUBE 8D,2016-067E,2025-03-26T01:32:20.718816,15.16014815,.0003763,98.1142,277.5548,225.4836,134.6088,0,U,41852,999,45798,.9105E-3,.17452E-3,0
AEROCUBE 8C,2016-067F,2025-03-25T11:33:33.020352,15.16086732,.0006863,98.0976,274.8695,161.1187,199.0299,0,U,41853,999,45788,.9966E-3,.19161E-3,0
PROMETHEUS 2-1,2016-067G,2025-03-26T01:48:39.817440,15.40311776,.0007933,98.0879,289.9920,160.7607,199.3938,0,U,41854,999,45875,.17134E-2,.69588E-3,0
PROMETHEUS 2-3,2016-067H,2025-03-26T02:00:35.775360,15.40258245,.000697,98.0828,289.2256,169.5644,190.5746,0,U,41855,999,45875,.17288E-2,.70079E-3,0
GSAT0207 (GALILEO 15),2016-069A,2025-03-21T11:44:51.698400,1.70474564,.0005463,55.2270,113.6251,300.2992,59.7149,0,U,41859,999,5168,0,.39E-6,0
GSAT0212 (GALILEO 16),2016-069B,2025-03-23T16:33:17.474976,1.70474740,.0003874,55.2257,113.5600,321.8299,38.2152,0,U,41860,999,5197,0,.48E-6,0
GSAT0213 (GALILEO 17),2016-069C,2025-03-22T07:09:20.339712,1.70475012,.0005653,55.2271,113.6060,285.6568,74.3496,0,U,41861,999,5181,0,.42E-6,0
GSAT0214 (GALILEO 18),2016-069D,2025-03-25T23:06:59.441472,1.70474724,.0004719,55.2280,113.4973,288.7193,71.3100,0,U,41862,999,5200,0,.61E-6,0
GOES 16,2016-071A,2025-03-25T19:27:38.969280,1.00271622,.0001502,0.0762,288.2951,93.7200,17.8966,0,U,41866,999,3060,0,-.249E-5,0
TIANLIAN 1-04,2016-072A,2025-03-26T04:39:38.594016,1.00269566,.0040143,0.2949,275.1341,253.2756,262.1520,0,U,41869,999,3081,0,.27E-6,0
GOKTURK 1A,2016-073A,2025-03-26T04:49:07.844736,14.62834945,.0001343,98.1224,341.4759,86.4692,273.6663,0,U,41875,999,44333,.34077E-3,.1694E-4,0
RESOURCESAT-2A,2016-074A,2025-03-26T05:31:51.403584,14.21683356,.0000608,98.6109,158.5318,166.1818,193.9376,0,U,41877,999,43066,.28637E-3,.586E-5,0
WGS F8 (USA 272),2016-075A,2025-03-25T22:14:53.458368,1.00270806,.0000099,0.0065,172.5176,179.4306,315.1911,0,U,41879,999,3032,0,-.205E-5,0
FENGYUN 4A,2016-077A,2025-03-08T19:12:51.528096,1.00660049,.0004787,1.1339,85.1667,173.2627,349.1682,0,U,41882,999,3026,0,-.113E-5,0
CYGFM05,2016-078A,2025-03-25T21:52:00.596064,15.37996683,.0010421,34.9616,303.7667,271.5351,88.4174,0,U,41884,999,45931,.66016E-3,.25453E-3,0
CYGFM04,2016-078B,2025-03-25T21:25:40.369440,15.39527195,.0009354,34.9359,284.4449,291.6905,68.2817,0,U,41885,999,45943,.64808E-3,.2627E-3,0
CYGFM02,2016-078C,2025-03-25T22:35:03.308928,15.40417498,.0011195,34.9447,285.0056,283.6897,76.2575,0,U,41886,999,45954,.68222E-3,.2851E-3,0
CYGFM01,2016-078D,2025-03-25T21:59:19.250592,15.38345431,.0009709,34.9451,307.6048,259.1490,100.8135,0,U,41887,999,45936,.66532E-3,.25943E-3,0
CYGFM08,2016-078E,2025-03-26T00:12:40.358016,15.39142051,.0011866,34.9473,292.4507,280.6837,79.2545,0,U,41888,999,45949,.68537E-3,.27462E-3,0
CYGFM07,2016-078G,2025-03-25T21:55:50.909088,15.39621686,.0009909,34.9490,283.4772,297.0799,62.8908,0,U,41890,999,45945,.66002E-3,.26844E-3,0
CYGFM03,2016-078H,2025-03-25T21:48:44.583840,15.39435488,.0008637,34.9442,284.9994,283.0177,76.9577,0,U,41891,999,45943,.66155E-3,.26731E-3,0
ECHOSTAR 19,2016-079A,2025-03-26T02:32:38.724000,1.00271903,.0001218,0.0197,152.4290,217.8789,114.5373,0,U,41893,999,3024,0,-.141E-5,0
JCSAT-110A (JCSAT-15),2016-082A,2025-03-26T00:39:38.649888,1.00271256,.0000631,0.0016,136.3664,258.3505,268.9743,0,U,41903,999,3028,0,-.353E-5,0
STAR ONE D1,2016-082B,2025-03-26T04:33:29.890656,1.00271522,.0001691,0.0312,257.0312,90.8860,180.3205,0,U,41904,999,3029,0,-.214E-5,0
TJS-2,2017-001A,2025-03-25T23:08:50.678880,1.00273275,.000189,0.3329,268.9286,122.9165,205.5426,0,U,41911,999,3022,0,-.1E-6,0
